start=new Date('2022-04-21T00:00:00.000Z').valueOf();
sats=[{"MEAN_MOTION_DDOT":"0.0000000000000","ELEMENT_SET_NO":"999","EPOCH":"2022-04-20T19:31:01.937568","TIME_SYSTEM":"UTC","OBJECT_NAME":"STARLINK-2179","TLE_LINE2":"2 47761  53.0541 101.2099 0001751  60.8634 299.2530 15.06392191 63879","COUNTRY_CODE":"US","CLASSIFICATION_TYPE":"U","PERIAPSIS":"546.025","MEAN_ELEMENT_THEORY":"SGP4","MEAN_MOTION":"15.06392191","CENTER_NAME":"EARTH","LAUNCH_DATE":"2021-03-04","OBJECT_TYPE":"PAYLOAD","TLE_LINE1":"1 47761U 21017AR  22110.81321687 -.00001426  00000-0 -76853-4 0  9996","REF_FRAME":"TEME","APOAPSIS":"548.450","DECAY_DATE":null,"BSTAR":"-0.00007685300000","ECCENTRICITY":"0.00017510","NORAD_CAT_ID":"47761","FILE":"3409979","PERIOD":"95.593","EPHEMERIS_TYPE":"0","INCLINATION":"53.0541","RA_OF_ASC_NODE":"101.2099","MEAN_ANOMALY":"299.2530","ARG_OF_PERICENTER":"60.8634","REV_AT_EPOCH":"6387","GP_ID":"201713490","MEAN_MOTION_DOT":"-0.00001426","SITE":"AFETR","RCS_SIZE":"LARGE","OBJECT_ID":"2021-017AR","SEMIMAJOR_AXIS":"6925.372"},{"TLE_LINE2":"2 47762  53.0545 116.6945 0002029  44.3385 315.7766 15.06397119 63660","OBJECT_NAME":"STARLINK-2180","COUNTRY_CODE":"US","PERIAPSIS":"545.817","CLASSIFICATION_TYPE":"U","MEAN_ELEMENT_THEORY":"SGP4","MEAN_MOTION_DDOT":"0.0000000000000","EPOCH":"2022-04-20T16:56:24.568224","TIME_SYSTEM":"UTC","ELEMENT_SET_NO":"999","TLE_LINE1":"1 47762U 21017AS  22110.70583991  .00000520  00000-0  53846-4 0  9992","DECAY_DATE":null,"APOAPSIS":"548.628","REF_FRAME":"TEME","MEAN_MOTION":"15.06397119","LAUNCH_DATE":"2021-03-04","CENTER_NAME":"EARTH","OBJECT_TYPE":"PAYLOAD","NORAD_CAT_ID":"47762","PERIOD":"95.592","FILE":"3409979","EPHEMERIS_TYPE":"0","BSTAR":"0.00005384600000","ECCENTRICITY":"0.00020290","GP_ID":"201713240","MEAN_MOTION_DOT":"0.00000520","SITE":"AFETR","RCS_SIZE":"LARGE","SEMIMAJOR_AXIS":"6925.357","OBJECT_ID":"2021-017AS","MEAN_ANOMALY":"315.7766","RA_OF_ASC_NODE":"116.6945","INCLINATION":"53.0545","REV_AT_EPOCH":"6366","ARG_OF_PERICENTER":"44.3385"},{"MEAN_MOTION_DDOT":"0.0000000000000","TIME_SYSTEM":"UTC","EPOCH":"2022-04-20T17:20:19.549536","ELEMENT_SET_NO":"999","COUNTRY_CODE":"US","PERIAPSIS":"545.683","CLASSIFICATION_TYPE":"U","TLE_LINE2":"2 47763  53.0555 106.6197 0002192  48.8121 311.3057 15.06403962 63780","OBJECT_NAME":"STARLINK-2181","MEAN_ELEMENT_THEORY":"SGP4","MEAN_MOTION":"15.06403962","OBJECT_TYPE":"PAYLOAD","LAUNCH_DATE":"2021-03-04","CENTER_NAME":"EARTH","TLE_LINE1":"1 47763U 21017AT  22110.72244849  .00001715  00000-0  13399-3 0  9996","DECAY_DATE":null,"APOAPSIS":"548.719","REF_FRAME":"TEME","BSTAR":"0.00013399000000","ECCENTRICITY":"0.00021920","FILE":"3409979","PERIOD":"95.592","NORAD_CAT_ID":"47763","EPHEMERIS_TYPE":"0","MEAN_ANOMALY":"311.3057","RA_OF_ASC_NODE":"106.6197","INCLINATION":"53.0555","REV_AT_EPOCH":"6378","ARG_OF_PERICENTER":"48.8121","GP_ID":"201714492","OBJECT_ID":"2021-017AT","SEMIMAJOR_AXIS":"6925.336","SITE":"AFETR","MEAN_MOTION_DOT":"0.00001715","RCS_SIZE":"LARGE"},{"PERIOD":"95.592","FILE":"3409639","NORAD_CAT_ID":"47764","EPHEMERIS_TYPE":"0","BSTAR":"0.00033984000000","ECCENTRICITY":"0.00018610","GP_ID":"201681350","OBJECT_ID":"2021-017AU","SEMIMAJOR_AXIS":"6925.325","MEAN_MOTION_DOT":"0.00004785","SITE":"AFETR","RCS_SIZE":"LARGE","MEAN_ANOMALY":"307.5506","RA_OF_ASC_NODE":"117.9404","INCLINATION":"53.0534","REV_AT_EPOCH":"6365","ARG_OF_PERICENTER":"52.5652","PERIAPSIS":"545.901","COUNTRY_CODE":"US","CLASSIFICATION_TYPE":"U","OBJECT_NAME":"STARLINK-2182","TLE_LINE2":"2 47764  53.0534 117.9404 0001861  52.5652 307.5506 15.06407659 63656","MEAN_ELEMENT_THEORY":"SGP4","MEAN_MOTION_DDOT":"0.0000000000000","TIME_SYSTEM":"UTC","EPOCH":"2022-04-20T10:14:23.174304","ELEMENT_SET_NO":"999","TLE_LINE1":"1 47764U 21017AU  22110.42665711  .00004785  00000-0  33984-3 0  9991","DECAY_DATE":null,"APOAPSIS":"548.479","REF_FRAME":"TEME","MEAN_MOTION":"15.06407659","OBJECT_TYPE":"PAYLOAD","LAUNCH_DATE":"2021-03-04","CENTER_NAME":"EARTH"},{"PERIOD":"90.713","FILE":"3409979","NORAD_CAT_ID":"47765","EPHEMERIS_TYPE":"0","BSTAR":"0.00276870000000","ECCENTRICITY":"0.00009200","GP_ID":"201712990","OBJECT_ID":"2021-017AV","SEMIMAJOR_AXIS":"6687.641","SITE":"AFETR","RCS_SIZE":"LARGE","MEAN_MOTION_DOT":"0.00819727","INCLINATION":"53.0516","MEAN_ANOMALY":"229.8800","RA_OF_ASC_NODE":"73.8629","ARG_OF_PERICENTER":"130.2305","REV_AT_EPOCH":"6424","CLASSIFICATION_TYPE":"U","COUNTRY_CODE":"US","PERIAPSIS":"308.891","TLE_LINE2":"2 47765  53.0516  73.8629 0000920 130.2305 229.8800 15.87425291 64240","OBJECT_NAME":"STARLINK-2183","MEAN_ELEMENT_THEORY":"SGP4","MEAN_MOTION_DDOT":"0.0000000000000","ELEMENT_SET_NO":"999","EPOCH":"2022-04-20T14:38:56.207328","TIME_SYSTEM":"UTC","TLE_LINE1":"1 47765U 21017AV  22110.61037277  .00819727  00000-0  27687-2 0  9995","APOAPSIS":"310.122","REF_FRAME":"TEME","DECAY_DATE":null,"MEAN_MOTION":"15.87425291","OBJECT_TYPE":"PAYLOAD","CENTER_NAME":"EARTH","LAUNCH_DATE":"2021-03-04"},{"MEAN_MOTION_DDOT":"0.0000000000000","ELEMENT_SET_NO":"999","TIME_SYSTEM":"UTC","EPOCH":"2022-04-20T17:03:04.219200","CLASSIFICATION_TYPE":"U","COUNTRY_CODE":"US","PERIAPSIS":"545.712","TLE_LINE2":"2 47766  53.0525 116.6695 0002104  47.6857 312.4310 15.06414473 63637","OBJECT_NAME":"STARLINK-2184","MEAN_ELEMENT_THEORY":"SGP4","MEAN_MOTION":"15.06414473","OBJECT_TYPE":"PAYLOAD","CENTER_NAME":"EARTH","LAUNCH_DATE":"2021-03-04","TLE_LINE1":"1 47766U 21017AW  22110.71046550  .00003440  00000-0  24964-3 0  9994","APOAPSIS":"548.626","REF_FRAME":"TEME","DECAY_DATE":null,"BSTAR":"0.00024964000000","ECCENTRICITY":"0.00021040","FILE":"3409979","PERIOD":"95.591","NORAD_CAT_ID":"47766","EPHEMERIS_TYPE":"0","INCLINATION":"53.0525","MEAN_ANOMALY":"312.4310","RA_OF_ASC_NODE":"116.6695","ARG_OF_PERICENTER":"47.6857","REV_AT_EPOCH":"6363","GP_ID":"201713741","OBJECT_ID":"2021-017AW","SEMIMAJOR_AXIS":"6925.304","SITE":"AFETR","RCS_SIZE":"LARGE","MEAN_MOTION_DOT":"0.00003440"},{"EPHEMERIS_TYPE":"0","NORAD_CAT_ID":"47767","FILE":"3409979","PERIOD":"95.591","ECCENTRICITY":"0.00020070","BSTAR":"0.00034533000000","MEAN_MOTION_DOT":"0.00004867","SITE":"AFETR","RCS_SIZE":"LARGE","OBJECT_ID":"2021-017AX","SEMIMAJOR_AXIS":"6925.317","GP_ID":"201713992","REV_AT_EPOCH":"6390","ARG_OF_PERICENTER":"49.9203","RA_OF_ASC_NODE":"101.8519","MEAN_ANOMALY":"310.1961","INCLINATION":"53.0529","MEAN_ELEMENT_THEORY":"SGP4","TLE_LINE2":"2 47767  53.0529 101.8519 0002007  49.9203 310.1961 15.06410409 63907","OBJECT_NAME":"STARLINK-2185","COUNTRY_CODE":"US","PERIAPSIS":"545.792","CLASSIFICATION_TYPE":"U","TIME_SYSTEM":"UTC","EPOCH":"2022-04-20T16:04:01.121088","ELEMENT_SET_NO":"999","MEAN_MOTION_DDOT":"0.0000000000000","DECAY_DATE":null,"APOAPSIS":"548.572","REF_FRAME":"TEME","TLE_LINE1":"1 47767U 21017AX  22110.66945742  .00004867  00000-0  34533-3 0  9997","LAUNCH_DATE":"2021-03-04","CENTER_NAME":"EARTH","OBJECT_TYPE":"PAYLOAD","MEAN_MOTION":"15.06410409"},{"MEAN_MOTION_DDOT":"0.0000000000000","EPOCH":"2022-04-20T17:44:11.232960","TIME_SYSTEM":"UTC","ELEMENT_SET_NO":"999","TLE_LINE2":"2 47768  53.0542 116.5439 0001828  54.5117 305.6042 15.06403954 63673","OBJECT_NAME":"STARLINK-2189","COUNTRY_CODE":"US","CLASSIFICATION_TYPE":"U","PERIAPSIS":"545.935","MEAN_ELEMENT_THEORY":"SGP4","MEAN_MOTION":"15.06403954","LAUNCH_DATE":"2021-03-04","CENTER_NAME":"EARTH","OBJECT_TYPE":"PAYLOAD","TLE_LINE1":"1 47768U 21017AY  22110.73901890  .00001313  00000-0  10700-3 0  9995","DECAY_DATE":null,"REF_FRAME":"TEME","APOAPSIS":"548.467","BSTAR":"0.00010700000000","ECCENTRICITY":"0.00018280","NORAD_CAT_ID":"47768","FILE":"3409979","PERIOD":"95.592","EPHEMERIS_TYPE":"0","MEAN_ANOMALY":"305.6042","RA_OF_ASC_NODE":"116.5439","INCLINATION":"53.0542","REV_AT_EPOCH":"6367","ARG_OF_PERICENTER":"54.5117","GP_ID":"201714743","SITE":"AFETR","MEAN_MOTION_DOT":"0.00001313","RCS_SIZE":"LARGE","OBJECT_ID":"2021-017AY","SEMIMAJOR_AXIS":"6925.336"},{"REV_AT_EPOCH":"6417","ARG_OF_PERICENTER":"53.2003","RA_OF_ASC_NODE":"81.9120","MEAN_ANOMALY":"306.9155","INCLINATION":"53.0566","OBJECT_ID":"2021-017AZ","SEMIMAJOR_AXIS":"6925.332","SITE":"AFETR","MEAN_MOTION_DOT":"0.00000261","RCS_SIZE":"LARGE","GP_ID":"201713491","ECCENTRICITY":"0.00018390","BSTAR":"0.00003644700000","EPHEMERIS_TYPE":"0","FILE":"3409979","PERIOD":"95.592","NORAD_CAT_ID":"47769","OBJECT_TYPE":"PAYLOAD","LAUNCH_DATE":"2021-03-04","CENTER_NAME":"EARTH","MEAN_MOTION":"15.06405412","DECAY_DATE":null,"APOAPSIS":"548.471","REF_FRAME":"TEME","TLE_LINE1":"1 47769U 21017AZ  22110.65286655  .00000261  00000-0  36447-4 0  9990","EPOCH":"2022-04-20T15:40:07.669920","TIME_SYSTEM":"UTC","ELEMENT_SET_NO":"999","MEAN_MOTION_DDOT":"0.0000000000000","MEAN_ELEMENT_THEORY":"SGP4","COUNTRY_CODE":"US","PERIAPSIS":"545.923","CLASSIFICATION_TYPE":"U","TLE_LINE2":"2 47769  53.0566  81.9120 0001839  53.2003 306.9155 15.06405412 64170","OBJECT_NAME":"STARLINK-2192"},{"EPHEMERIS_TYPE":"0","FILE":"3409979","PERIOD":"95.592","NORAD_CAT_ID":"47770","ECCENTRICITY":"0.00021620","BSTAR":"-0.00002145900000","SEMIMAJOR_AXIS":"6925.359","OBJECT_ID":"2021-017BA","RCS_SIZE":"LARGE","SITE":"AFETR","MEAN_MOTION_DOT":"-0.00000601","GP_ID":"201713241","ARG_OF_PERICENTER":"44.6829","REV_AT_EPOCH":"6394","INCLINATION":"53.0513","MEAN_ANOMALY":"315.4334","RA_OF_ASC_NODE":"96.9016","MEAN_ELEMENT_THEORY":"SGP4","COUNTRY_CODE":"US","PERIAPSIS":"545.727","CLASSIFICATION_TYPE":"U","OBJECT_NAME":"STARLINK-2193","TLE_LINE2":"2 47770  53.0513  96.9016 0002162  44.6829 315.4334 15.06396661 63947","ELEMENT_SET_NO":"999","EPOCH":"2022-04-20T15:51:25.667136","TIME_SYSTEM":"UTC","MEAN_MOTION_DDOT":"0.0000000000000","REF_FRAME":"TEME","APOAPSIS":"548.721","DECAY_DATE":null,"TLE_LINE1":"1 47770U 21017BA  22110.66071374 -.00000601  00000-0 -21459-4 0  9990","OBJECT_TYPE":"PAYLOAD","CENTER_NAME":"EARTH","LAUNCH_DATE":"2021-03-04","MEAN_MOTION":"15.06396661"}];
